0 COSMOS 1346
1 13120U 82027A   13281.21699737  .00006493  00000-0  22408-3 0   560
2 13120 081.1432 012.8257 0005097 315.6610 044.4250 15.29801634724647
0 COSMOS 1346
1 13120U 82027A   13282.39434759  .00011566  00000-0  39929-3 0   575
2 13120 081.1436 011.4235 0005145 308.6894 051.3882 15.29829928724826
0 COSMOS 1346
1 13120U 82027A   13283.76789113  .00010942  00000-0  37750-3 0   582
2 13120 081.1434 009.7884 0005140 303.8695 056.2052 15.29850449725034
0 COSMOS 1346
1 13120U 82027A   13286.31870947  .00008002  00000-0  27561-3 0   608
2 13120 081.1441 006.7511 0005017 293.3218 066.7490 15.29885931725422
0 COSMOS 1346
1 13120U 82027A   13287.36518058  .00008368  00000-0  28808-3 0   617
2 13120 081.1443 005.5053 0005036 289.0542 071.0149 15.29902668725589
0 COSMOS 1346
1 13120U 82027A   13288.28083131  .00011620  00000-0  39995-3 0   623
2 13120 081.1442 004.4153 0005018 285.5994 074.4688 15.29928194725722
0 COSMOS 1346
1 13120U 82027A   13289.32727195  .00011307  00000-0  38893-3 0   633
2 13120 081.1440 003.1696 0004953 281.4551 078.6129 15.29948913725883
0 COSMOS 1346
1 13120U 82027A   13290.63530405  .00012848  00000-0  44166-3 0   647
2 13120 081.1439 001.6124 0004949 275.9648 084.1024 15.29971588726083
0 COSMOS 1346
1 13120U 82027A   13292.13951425  .00009829  00000-0  33744-3 0   659
2 13120 081.1434 359.8214 0005016 269.9505 090.1156 15.30004567726312
0 COSMOS 1346
1 13120U 82027A   13293.31670089  .00010248  00000-0  35161-3 0   667
2 13120 081.1427 358.4194 0005001 264.8021 095.2644 15.30026377726497
0 COSMOS 1346
1 13120U 82027A   13294.75546351  .00012319  00000-0  42249-3 0   677
2 13120 081.1422 356.7057 0004945 258.7710 101.2970 15.30048481726719
